LEMUR-2-GREENBERG       
1 42837U 17042N   26068.46200528  .00019778  00000+0  72539-3 0  9997
2 42837  97.3781 249.8007 0009157   4.0119 356.1192 15.27971352473146
STARLINK-32750          
1 62572U 25006U   26068.01279713  .00027621  00000+0  10087-2 0  9992
2 62572  43.0026 296.0022 0001204 282.8978  77.1739 15.27606075 64767
